{
  "type": "FeatureCollection",
  "features": [
    {
      "type": "Feature",
      "properties": {
        "norad_id": 41556,
        "name": "ZIYUAN 3-2 (ZY 3-2)",
        "group": "resource",
        "lat": 57.12741778641352,
        "lon": -115.11145035143885,
        "alt_km": 504.285487779096,
        "timestamp": "2025-12-04T23:34:05.388006+00:00",
        "meta_object_name": "ZIYUAN 3-2 (ZY 3-2)",
        "meta_object_id": "2016-033A",
        "meta_epoch": "2025-12-04T18:17:48.832800",
        "meta_mean_motion": 15.2132571,
        "meta_eccentricity": 0.0012451,
        "meta_inclination": 97.4059,
        "meta_ra_of_asc_node": 53.0611,
        "meta_arg_of_pericenter": 280.2561,
        "meta_mean_anomaly": 79.727,
        "meta_ephemeris_type": 0,
        "meta_classification_type": "U",
        "meta_norad_cat_id": 41556,
        "meta_element_set_no": 999,
        "meta_rev_at_epoch": 52842,
        "meta_bstar": 0.00070496,
        "meta_mean_motion_dot": 0.00015765,
        "meta_mean_motion_ddot": 0,
        "tle_line1": "1 41556U 16033A   25338.76237075  .00015765  00000+0  70496-3 0  9994",
        "tle_line2": "2 41556  97.4059  53.0611 0012451 280.2561  79.7270 15.21325710528420"
      },
      "geometry": {
        "type": "Point",
        "coordinates": [
          -115.11145035143885,
          57.12741778641352
        ]
      }
    },
    {
      "type": "Feature",
      "properties": {
        "norad_id": 41599,
        "name": "CARTOSAT-2C",
        "group": "resource",
        "lat": 52.41262210016619,
        "lon": -133.86206774063882,
        "alt_km": 497.45695582265034,
        "timestamp": "2025-12-04T23:34:05.388016+00:00",
        "meta_object_name": "CARTOSAT-2C",
        "meta_object_id": "2016-040A",
        "meta_epoch": "2025-12-04T18:16:12.292896",
        "meta_mean_motion": 15.1918306,
        "meta_eccentricity": 0.0011051,
        "meta_inclination": 97.4782,
        "meta_ra_of_asc_node": 36.0939,
        "meta_arg_of_pericenter": 89.4186,
        "meta_mean_anomaly": 270.8314,
        "meta_ephemeris_type": 0,
        "meta_classification_type": "U",
        "meta_norad_cat_id": 41599,
        "meta_element_set_no": 999,
        "meta_rev_at_epoch": 52419,
        "meta_bstar": 0.00082852,
        "meta_mean_motion_dot": 0.00017415,
        "meta_mean_motion_ddot": 0,
        "tle_line1": "1 41599U 16040A   25338.76125339  .00017415  00000+0  82852-3 0  9991",
        "tle_line2": "2 41599  97.4782  36.0939 0011051  89.4186 270.8314 15.19183060524191"
      },
      "geometry": {
        "type": "Point",
        "coordinates": [
          -133.86206774063882,
          52.41262210016619
        ]
      }
    },
    {
      "type": "Feature",
      "properties": {
        "norad_id": 41601,
        "name": "SKYSAT-C1",
        "group": "resource",
        "lat": 6.894408932685103,
        "lon": -162.71627995086584,
        "alt_km": 472.5262620965468,
        "timestamp": "2025-12-04T23:34:05.388027+00:00",
        "meta_object_name": "SKYSAT-C1",
        "meta_object_id": "2016-040C",
        "meta_epoch": "2025-12-04T16:32:49.870176",
        "meta_mean_motion": 15.32368766,
        "meta_eccentricity": 0.0003198,
        "meta_inclination": 96.9832,
        "meta_ra_of_asc_node": 16.1585,
        "meta_arg_of_pericenter": 35.658,
        "meta_mean_anomaly": 324.4876,
        "meta_ephemeris_type": 0,
        "meta_classification_type": "U",
        "meta_norad_cat_id": 41601,
        "meta_element_set_no": 999,
        "meta_rev_at_epoch": 52804,
        "meta_bstar": 0.00060167,
        "meta_mean_motion_dot": 0.00018759,
        "meta_mean_motion_ddot": 0,
        "tle_line1": "1 41601U 16040C   25338.68946609  .00018759  00000+0  60167-3 0  9994",
        "tle_line2": "2 41601  96.9832  16.1585 0003198  35.6580 324.4876 15.32368766528045"
      },
      "geometry": {
        "type": "Point",
        "coordinates": [
          -162.71627995086584,
          6.894408932685103
        ]
      }
    },
    {
      "type": "Feature",
      "properties": {
        "norad_id": 41603,
        "name": "LAPAN-A3",
        "group": "resource",
        "lat": -16.18213975078163,
        "lon": -21.09342104948769,
        "alt_km": 469.4920764957542,
        "timestamp": "2025-12-04T23:34:05.388037+00:00",
        "meta_object_name": "LAPAN-A3",
        "meta_object_id": "2016-040E",
        "meta_epoch": "2025-12-04T18:56:04.639776",
        "meta_mean_motion": 15.31454935,
        "meta_eccentricity": 0.0010669,
        "meta_inclination": 97.142,
        "meta_ra_of_asc_node": 336.6353,
        "meta_arg_of_pericenter": 3.3342,
        "meta_mean_anomaly": 356.797,
        "meta_ephemeris_type": 0,
        "meta_classification_type": "U",
        "meta_norad_cat_id": 41603,
        "meta_element_set_no": 999,
        "meta_rev_at_epoch": 52504,
        "meta_bstar": 0.0002488,
        "meta_mean_motion_dot": 7.497e-05,
        "meta_mean_motion_ddot": 0,
        "tle_line1": "1 41603U 16040E   25338.78894259  .00007497  00000+0  24880-3 0  9999",
        "tle_line2": "2 41603  97.1420 336.6353 0010669   3.3342 356.7970 15.31454935525048"
      },
      "geometry": {
        "type": "Point",
        "coordinates": [
          -21.09342104948769,
          -16.18213975078163
        ]
      }
    },
    {
      "type": "Feature",
      "properties": {
        "norad_id": 41604,
        "name": "BIROS",
        "group": "resource",
        "lat": 28.91085896569199,
        "lon": 6.1926724964238815,
        "alt_km": 312.1996117008639,
        "timestamp": "2025-12-04T23:34:05.388047+00:00",
        "meta_object_name": "BIROS",
        "meta_object_id": "2016-040F",
        "meta_epoch": "2025-12-04T14:21:45.694656",
        "meta_mean_motion": 15.86388554,
        "meta_eccentricity": 0.0002893,
        "meta_inclination": 97.0693,
        "meta_ra_of_asc_node": 9.7256,
        "meta_arg_of_pericenter": 168.0467,
        "meta_mean_anomaly": 192.0874,
        "meta_ephemeris_type": 0,
        "meta_classification_type": "U",
        "meta_norad_cat_id": 41604,
        "meta_element_set_no": 999,
        "meta_rev_at_epoch": 52743,
        "meta_bstar": 0.00092982,
        "meta_mean_motion_dot": 0.00237554,
        "meta_mean_motion_ddot": 0,
        "tle_line1": "1 41604U 16040F   25338.59844554  .00237554  00000+0  92982-3 0  9999",
        "tle_line2": "2 41604  97.0693   9.7256 0002893 168.0467 192.0874 15.86388554527439"
      },
      "geometry": {
        "type": "Point",
        "coordinates": [
          6.1926724964238815,
          28.91085896569199
        ]
      }
    },
    {
      "type": "Feature",
      "properties": {
        "norad_id": 41727,
        "name": "GAOFEN-3",
        "group": "resource",
        "lat": 81.57792000413397,
        "lon": -108.46967756795787,
        "alt_km": 742.676629003211,
        "timestamp": "2025-12-04T23:34:05.388057+00:00",
        "meta_object_name": "GAOFEN-3",
        "meta_object_id": "2016-049A",
        "meta_epoch": "2025-12-04T18:09:18.652032",
        "meta_mean_motion": 14.42210005,
        "meta_eccentricity": 0.0001582,
        "meta_inclination": 98.4041,
        "meta_ra_of_asc_node": 344.4644,
        "meta_arg_of_pericenter": 71.9041,
        "meta_mean_anomaly": 288.2321,
        "meta_ephemeris_type": 0,
        "meta_classification_type": "U",
        "meta_norad_cat_id": 41727,
        "meta_element_set_no": 999,
        "meta_rev_at_epoch": 49062,
        "meta_bstar": 2.8387e-06,
        "meta_mean_motion_dot": -3.4e-07,
        "meta_mean_motion_ddot": 0,
        "tle_line1": "1 41727U 16049A   25338.75646588 -.00000034  00000+0  28387-5 0  9991",
        "tle_line2": "2 41727  98.4041 344.4644 0001582  71.9041 288.2321 14.42210005490622"
      },
      "geometry": {
        "type": "Point",
        "coordinates": [
          -108.46967756795787,
          81.57792000413397
        ]
      }
    },
    {
      "type": "Feature",
      "properties": {
        "norad_id": 41771,
        "name": "SKYSAT-C4",
        "group": "resource",
        "lat": -20.438268458397157,
        "lon": -178.051683178875,
        "alt_km": 445.6808576901767,
        "timestamp": "2025-12-04T23:34:05.388067+00:00",
        "meta_object_name": "SKYSAT-C4",
        "meta_object_id": "2016-058B",
        "meta_epoch": "2025-12-04T14:54:49.524192",
        "meta_mean_motion": 15.41902594,
        "meta_eccentricity": 7.87e-05,
        "meta_inclination": 96.9377,
        "meta_ra_of_asc_node": 4.2062,
        "meta_arg_of_pericenter": 123.0902,
        "meta_mean_anomaly": 237.0422,
        "meta_ephemeris_type": 0,
        "meta_classification_type": "U",
        "meta_norad_cat_id": 41771,
        "meta_element_set_no": 999,
        "meta_rev_at_epoch": 51542,
        "meta_bstar": 0.0006825,
        "meta_mean_motion_dot": 0.00028987,
        "meta_mean_motion_ddot": 0,
        "tle_line1": "1 41771U 16058B   25338.62140653  .00028987  00000+0  68250-3 0  9995",
        "tle_line2": "2 41771  96.9377   4.2062 0000787 123.0902 237.0422 15.41902594515423"
      },
      "geometry": {
        "type": "Point",
        "coordinates": [
          -178.051683178875,
          -20.438268458397157
        ]
      }
    }
  ]
}